0 FENGYUN 1C DEB
1 38159U 99025ERG 13270.45371084  .00000626  00000-0  45836-3 0   619
2 38159 099.2883 351.7375 0063970 302.2748 057.2229 13.98862101206856
0 FENGYUN 1C DEB
1 38159U 99025ERG 13272.45641601  .00000622  00000-0  45589-3 0   628
2 38159 099.2886 353.7665 0063869 296.7931 062.6704 13.98864691207137
0 FENGYUN 1C DEB
1 38159U 99025ERG 13277.46316702  .00000607  00000-0  44557-3 0   633
2 38159 099.2875 358.8363 0063707 282.9424 076.4510 13.98870921207839
0 FENGYUN 1C DEB
1 38159U 99025ERG 13279.46586997  .00000580  00000-0  42710-3 0   640
2 38159 099.2873 000.8648 0063850 277.6197 081.7624 13.98872586208110
0 FENGYUN 1C DEB
1 38159U 99025ERG 13281.46857088  .00000564  00000-0  41626-3 0   653
2 38159 099.2867 002.8922 0064171 272.4085 086.9723 13.98874537208391
0 FENGYUN 1C DEB
1 38159U 99025ERG 13283.47126714  .00000539  00000-0  39871-3 0   663
2 38159 099.2865 004.9164 0064456 266.3275 093.0550 13.98876302208679
